ORBCOMM FM24            
1 25478U 98053D   25324.52103976  .00001120  00000+0  40861-3 0  9995
2 25478  45.0072 247.6185 0003657 310.1628  49.8900 14.38576058419956
ORBCOMM FM25            
1 25479U 98053E   25324.91228240  .00001072  00000+0  39337-3 0  9993
2 25479  45.0064 244.0567 0005975 316.6351  43.4027 14.38546030420300
ORBCOMM FM26            
1 25480U 98053F   25324.96007235  .00000955  00000+0  36258-3 0  9997
2 25480  45.0061 241.4521 0007783 329.4642  30.5752 14.37530723420206
ORBCOMM FM27            
1 25481U 98053G   25325.03532117  .00001179  00000+0  42779-3 0  9993
2 25481  45.0046 243.6154 0002300 326.2843  33.7858 14.38578956420252
ORBCOMM FM28            
1 25482U 98053H   25324.98535911  .00000911  00000+0  34012-3 0  9996
2 25482  45.0039 181.1523 0005097  11.6177 348.4788 14.38711057420936
ORBCOMM FM30            
1 25980U 99065A   25324.58467619  .00001057  00000+0  39539-3 0  9999
2 25980  45.0313  69.2390 0005241  84.9270 275.2176 14.37692902356954
ORBCOMM FM31            
1 25981U 99065B   25324.70416567  .00001084  00000+0  40485-3 0  9992
2 25981  45.0229  62.1304 0003427 126.6420 233.4744 14.37620564356528
ORBCOMM FM32            
1 25982U 99065C   25324.64548291  .00001210  00000+0  45490-3 0  9998
2 25982  45.0149  80.0331 0005781 109.0773 251.0702 14.36673969357099
